NORAD_CAT_ID,OBJECT_NAME,OBJECT_TYPE,EPOCH,MEAN_MOTION,ECCENTRICITY,INCLINATION,RA_OF_ASC_NODE,ARG_OF_PERICENTER,MEAN_ANOMALY,BSTAR,MEAN_MOTION_DOT,MEAN_MOTION_DDOT,TLE_LINE0,TLE_LINE1,TLE_LINE2,SEMIMAJOR_AXIS,PERIOD,APOGEE,PERIGEE,DECAYED
53285.0,STARLINK-4173,PAYLOAD,2023-01-02 22:34:30,15.08841259,0.0002294,53.2202,359.4066,36.5584,323.5565,4.5959e-05,4.43e-06,0.0,0 STARLINK-4173,1 53285U 22086AV  23002.94063619  .00000443  00000-0  45959-4 0  9993,2 53285  53.2202 359.4066 0002294  36.5584 323.5565 15.08841259 25649,6917.877,95.437,541.3290000000002,538.155,0.0
53285.0,STARLINK-4173,PAYLOAD,2023-01-03 06:31:27,15.08834445,0.0002210999999999,53.2208,357.9197,34.6783,325.4353,0.00013326,1.833e-05,0.0,0 STARLINK-4173,1 53285U 22086AV  23003.27184183  .00001833  00000-0  13326-3 0  9996,2 53285  53.2208 357.9197 0002211  34.6783 325.4353 15.08834445 25692,6917.897,95.438,541.2919999999998,538.2330000000002,0.0
53285.0,STARLINK-4173,PAYLOAD,2023-01-03 11:17:36,15.08833673,0.0002265,53.2205,357.0283,35.2423,324.8718,0.00015421,2.166e-05,0.0,0 STARLINK-4173,1 53285U 22086AV  23003.47056366  .00002166  00000-0  15421-3 0  9997,2 53285  53.2205 357.0283 0002265  35.2423 324.8718 15.08833673 25884,6917.9,95.438,541.332,538.198,0.0
53285.0,STARLINK-4173,PAYLOAD,2023-01-04 09:33:00,15.0884397,0.0002384,53.2193,352.8663,36.1125,324.0027,0.00023117,3.393e-05,0.0,0 STARLINK-4173,1 53285U 22086AV  23004.39792502  .00003393  00000-0  23117-3 0  9992,2 53285  53.2193 352.8663 0002384  36.1125 324.0027 15.08843970 25860,6917.868,95.437,541.382,538.0840000000002,0.0
53285.0,STARLINK-4173,PAYLOAD,2023-01-04 15:54:32,15.08855762,0.0002355999999999,53.2197,351.6766,37.272,322.8436,0.00042228,6.442e-05,0.0,0 STARLINK-4173,1 53285U 22086AV  23004.66287837  .00006442  00000-0  42228-3 0  9994,2 53285  53.2197 351.6766 0002356  37.2720 322.8436 15.08855762 25904,6917.831999999999,95.437,541.327,538.067,0.0
53285.0,STARLINK-4173,PAYLOAD,2023-01-05 10:59:09,15.08863553,0.0002326,53.2188,348.1085,35.2335,324.8811,0.0003941,5.994e-05,0.0,0 STARLINK-4173,1 53285U 22086AV  23005.45775029  .00005994  00000-0  39410-3 0  9997,2 53285  53.2188 348.1085 0002326  35.2335 324.8811 15.08863553 26183,6917.808000000001,95.436,541.2819999999998,538.064,0.0
53285.0,STARLINK-4173,PAYLOAD,2023-01-05 15:45:18,15.08861173,0.0002276999999999,53.2184,347.2162,36.232,323.8826,0.00023758,3.497e-05,0.0,0 STARLINK-4173,1 53285U 22086AV  23005.65646754  .00003497  00000-0  23758-3 0  9995,2 53285  53.2184 347.2162 0002277  36.2320 323.8826 15.08861173 26210,6917.816,95.436,541.256,538.105,0.0
53285.0,STARLINK-4173,PAYLOAD,2023-01-06 06:03:47,15.08825156,0.0002095,53.2191,344.5409,39.5258,320.5887,-0.00085315,-0.00013835,0.0,0 STARLINK-4173,1 53285U 22086AV  23006.25263126 -.00013835  00000-0 -85315-3 0  9996,2 53285  53.2191 344.5409 0002095  39.5258 320.5887 15.08825156 26140,6917.926,95.438,541.24,538.341,0.0
53285.0,STARLINK-4173,PAYLOAD,2023-01-06 10:49:56,15.08824521,0.0002023,53.2186,343.6476,32.4055,327.7061,-0.00043706,-7.234e-05,0.0,0 STARLINK-4173,1 53285U 22086AV  23006.45135363 -.00007234  00000-0 -43706-3 0  9993,2 53285  53.2186 343.6476 0002023  32.4055 327.7061 15.08824521 26335,6917.928000000001,95.439,541.192,538.393,0.0
53285.0,STARLINK-4173,PAYLOAD,2023-01-07 04:19:11,15.08843023,0.0002152,53.2187,340.3773,34.2222,325.8908,0.0011938,0.00018764,0.0,0 STARLINK-4173,1 53285U 22086AV  23007.17999935  .00018764  00000-0  11938-2 0  9995,2 53285  53.2187 340.3773 0002152  34.2222 325.8908 15.08843023 26280,6917.871,95.437,541.225,538.247,0.0
53285.0,STARLINK-4173,PAYLOAD,2023-01-07 15:26:54,15.08834631,0.0002925,53.2184,338.2952,47.0457,313.078,0.0014360999999999,0.00022639,0.0,0 STARLINK-4173,1 53285U 22086AV  23007.64368400  .00022639  00000-0  14361-2 0  9993,2 53285  53.2184 338.2952 0002925  47.0457 313.0780 15.08834631 26352,6917.897,95.438,541.785,537.738,0.0
53285.0,STARLINK-4173,PAYLOAD,2023-01-07 21:48:27,15.08839034,0.0003078,53.2184,337.1064,49.947,310.1792,0.0011347,0.00017817,0.0,0 STARLINK-4173,1 53285U 22086AV  23007.90864594  .00017817  00000-0  11347-2 0  9990,2 53285  53.2184 337.1064 0003078  49.9470 310.1792 15.08839034 26555,6917.883000000002,95.438,541.878,537.619,0.0
53285.0,STARLINK-4173,PAYLOAD,2023-01-08 04:09:59,15.08828489,0.0002108,53.2191,335.9167,28.6486,331.4621,0.00016325,2.31e-05,0.0,0 STARLINK-4173,1 53285U 22086AV  23008.17360734  .00002310  00000-0  16325-3 0  9991,2 53285  53.2191 335.9167 0002108  28.6486 331.4621 15.08828489 26433,6917.916,95.438,541.239,538.322,0.0
53285.0,STARLINK-4173,PAYLOAD,2023-01-08 07:20:46,15.08829275,0.0002177,53.219,335.3216,34.5615,325.5518,0.00027866,4.148e-05,0.0,0 STARLINK-4173,1 53285U 22086AV  23008.30608897  .00004148  00000-0  27866-3 0  9994,2 53285  53.2190 335.3216 0002177  34.5615 325.5518 15.08829275 26610,6917.913000000001,95.438,541.284,538.2719999999998,0.0
53285.0,STARLINK-4173,PAYLOAD,2023-01-08 15:17:42,15.08833102,0.0002382,53.2201,333.834,48.9887,311.1311,0.00048386,7.419e-05,0.0,0 STARLINK-4173,1 53285U 22086AV  23008.63729172  .00007419  00000-0  48386-3 0  9994,2 53285  53.2201 333.8340 0002382  48.9887 311.1311 15.08833102 26663,6917.901,95.438,541.414,538.119,0.0
53285.0,STARLINK-4173,PAYLOAD,2023-01-09 04:00:46,15.08849572,0.0002333,53.2208,331.4564,41.6537,318.4633,0.00071491,0.00011111,0.0,0 STARLINK-4173,1 53285U 22086AV  23009.16720908  .00011111  00000-0  71491-3 0  9998,2 53285  53.2208 331.4564 0002333  41.6537 318.4633 15.08849572 26586,6917.851,95.437,541.33,538.102,0.0
53285.0,STARLINK-4173,PAYLOAD,2023-01-09 07:11:33,15.08851644,0.000233,53.221,330.8619,41.2746,318.8422,0.00073743,0.00011471,0.0,0 STARLINK-4173,1 53285U 22086AV  23009.29968850  .00011471  00000-0  73743-3 0  9993,2 53285  53.2210 330.8619 0002330  41.2746 318.8422 15.08851644 26761,6917.845,95.437,541.322,538.0980000000002,0.0
53285.0,STARLINK-4173,PAYLOAD,2023-01-10 07:02:20,15.0883869,0.000221,53.2196,326.4021,34.1653,325.9482,9.4719e-05,1.219e-05,0.0,0 STARLINK-4173,1 53285U 22086AV  23010.29328882  .00001219  00000-0  94719-4 0  9996,2 53285  53.2196 326.4021 0002210  34.1653 325.9482 15.08838690 26757,6917.884,95.438,541.278,538.221,0.0
53285.0,STARLINK-4173,PAYLOAD,2023-01-10 13:23:52,15.08844955,0.0002116,53.2191,325.2135,33.2806,326.8319,0.0001326,1.823e-05,0.0,0 STARLINK-4173,1 53285U 22086AV  23010.55824581  .00001823  00000-0  13260-3 0  9994,2 53285  53.2191 325.2135 0002116  33.2806 326.8319 15.08844955 26952,6917.865,95.437,541.194,538.266,0.0
53285.0,STARLINK-4173,PAYLOAD,2023-01-11 13:14:39,15.08852806,0.0002131,53.2188,320.7535,37.5923,322.5218,0.00024374,3.594e-05,0.0,0 STARLINK-4173,1 53285U 22086AV  23011.55184067  .00003594  00000-0  24374-3 0  9998,2 53285  53.2188 320.7535 0002131  37.5923 322.5218 15.08852806 26940,6917.840999999999,95.437,541.18,538.232,0.0
53285.0,STARLINK-4173,PAYLOAD,2023-01-11 19:36:11,15.0885468,0.0002087,53.2186,319.5643,36.242,323.8713,0.00031986,4.808e-05,0.0,0 STARLINK-4173,1 53285U 22086AV  23011.81679917  .00004808  00000-0  31986-3 0  9996,2 53285  53.2186 319.5643 0002087  36.2420 323.8713 15.08854680 27141,6917.835999999998,95.437,541.144,538.257,0.0
53285.0,STARLINK-4173,PAYLOAD,2023-01-12 05:08:29,15.08875463,0.0002119,53.2191,317.7797,36.04,324.0735,0.00072668,0.00011307,0.0,0 STARLINK-4173,1 53285U 22086AV  23012.21422854  .00011307  00000-0  72668-3 0  9991,2 53285  53.2191 317.7797 0002119  36.0400 324.0735 15.08875463 27047,6917.772,95.435,541.1030000000002,538.1709999999998,0.0
53285.0,STARLINK-4173,PAYLOAD,2023-01-12 13:05:25,15.08834327,0.0001927,53.2186,316.2936,42.4352,317.6789,-0.00040809,-6.776e-05,0.0,0 STARLINK-4173,1 53285U 22086AV  23012.54543876 -.00006776  00000-0 -40809-3 0  9993,2 53285  53.2186 316.2936 0001927  42.4352 317.6789 15.08834327 27099,6917.898,95.438,541.096,538.43,0.0
53285.0,STARLINK-4173,PAYLOAD,2023-01-13 00:13:09,15.08808379,0.0001948,53.218,314.2122,48.4742,311.6417,-0.00072668,-0.00011825,0.0,0 STARLINK-4173,1 53285U 22086AV  23013.00913199 -.00011825  00000-0 -72668-3 0  9993,2 53285  53.2180 314.2122 0001948  48.4742 311.6417 15.08808379 27168,6917.977,95.44,541.19,538.494,0.0
53285.0,STARLINK-4173,PAYLOAD,2023-01-13 03:23:55,15.088115099999998,0.0001934,53.2189,313.6173,50.1312,309.985,-0.00045406,-7.502e-05,0.0,0 STARLINK-4173,1 53285U 22086AV  23013.14161436 -.00007502  00000-0 -45406-3 0  9994,2 53285  53.2189 313.6173 0001934  50.1312 309.9850 15.08811510 27346,6917.967,95.439,541.17,538.495,0.0
53285.0,STARLINK-4173,PAYLOAD,2023-01-13 19:17:47,15.08830217,0.0001873,53.2187,310.6434,50.7305,309.3853,0.00073645,0.00011449,0.0,0 STARLINK-4173,1 53285U 22086AV  23013.80402369  .00011449  00000-0  73645-3 0  9999,2 53285  53.2187 310.6434 0001873  50.7305 309.3853 15.08830217 27286,6917.91,95.438,541.071,538.48,0.0
53285.0,STARLINK-4173,PAYLOAD,2023-01-13 20:53:10,15.08836832,0.0001801,53.2183,310.3464,52.5549,307.5606,0.0015623,0.00024661,0.0,0 STARLINK-4173,1 53285U 22086AV  23013.87026612  .00024661  00000-0  15623-2 0  9990,2 53285  53.2183 310.3464 0001801  52.5549 307.5606 15.08836832 27457,6917.89,95.438,541.001,538.509,0.0
53285.0,STARLINK-4173,PAYLOAD,2023-01-14 04:50:06,15.08872272,0.0001716,53.218,308.86,53.5351,306.5799,0.0024795999999999,0.00039431,0.0,0 STARLINK-4173,1 53285U 22086AV  23014.20146106  .00039431  00000-0  24796-2 0  9991,2 53285  53.2180 308.8600 0001716  53.5351 306.5799 15.08872272 27343,6917.781999999999,95.436,540.8340000000001,538.46,0.0
53285.0,STARLINK-4173,PAYLOAD,2023-01-14 12:47:01,15.08861553,0.0001656,53.2178,307.3726,64.0198,296.0964,0.00113,0.00017752,0.0,0 STARLINK-4173,1 53285U 22086AV  23014.53265918  .00017752  00000-0  11300-2 0  9999,2 53285  53.2178 307.3726 0001656  64.0198 296.0964 15.08861553 27394,6917.815,95.436,540.825,538.534,0.0
